{"type": "FeatureCollection", "features": [ {"type": "Feature", "properties": {"norad_id": 40664, "name": "SKY MEXICO-1", "group": "intelsat", "lat": 0.02868293269809439, "lon": 114.91867094853943, "alt_km": 35797.20979414154, "timestamp": "2025-12-09T07:41:32.871323+00:00", "meta": {"OBJECT_NAME": "SKY MEXICO-1", "OBJECT_ID": "2015-026B", "EPOCH": "2025-12-08T21:47:24.447840", "MEAN_MOTION": 1.00270859, "ECCENTRICITY": 0.00027564, "INCLINATION": 0.0226, "RA_OF_ASC_NODE": 57.8612, "ARG_OF_PERICENTER": 215.4183, "MEAN_ANOMALY": 52.7141, "EPHEMERIS_TYPE": 0, "CLASSIFICATION_TYPE": "U", "NORAD_CAT_ID": 40664, "ELEMENT_SET_NO": 999, "REV_AT_EPOCH": 3854, "BSTAR": 0, "MEAN_MOTION_DOT": -2.32e-06, "MEAN_MOTION_DDOT": 0}, "tle": {"line1": "1 40664U 15026B   25342.90792185 -.00000232  00000+0  00000+0 0  9997", "line2": "2 40664   0.0226  57.8612 0002756 215.4183  52.7141  1.00270859 38547"}}, "geometry": {"type": "Point", "coordinates": [114.91867094853943, 0.02868293269809439]}}, {"type": "Feature", "properties": {"norad_id": 40874, "name": "INTELSAT 34 (IS-34)", "group": "intelsat", "lat": 0.0011040102624232549, "lon": 138.199279807584, "alt_km": 35783.73253581419, "timestamp": "2025-12-09T07:41:32.871335+00:00", "meta": {"OBJECT_NAME": "INTELSAT 34 (IS-34)", "OBJECT_ID": "2015-039A", "EPOCH": "2025-12-08T20:11:15.512064", "MEAN_MOTION": 1.00271316, "ECCENTRICITY": 7.484e-05, "INCLINATION": 0.0137, "RA_OF_ASC_NODE": 305.0745, "ARG_OF_PERICENTER": 229.1889, "MEAN_ANOMALY": 150.9006, "EPHEMERIS_TYPE": 0, "CLASSIFICATION_TYPE": "U", "NORAD_CAT_ID": 40874, "ELEMENT_SET_NO": 999, "REV_AT_EPOCH": 3771, "BSTAR": 0, "MEAN_MOTION_DOT": -2.83e-06, "MEAN_MOTION_DDOT": 0}, "tle": {"line1": "1 40874U 15039A   25342.84115176 -.00000283  00000+0  00000+0 0  9992", "line2": "2 40874   0.0137 305.0745 0000748 229.1889 150.9006  1.00271316 37718"}}, "geometry": {"type": "Point", "coordinates": [138.199279807584, 0.0011040102624232549]}}, {"type": "Feature", "properties": {"norad_id": 41581, "name": "INTELSAT 31 (IS-31)", "group": "intelsat", "lat": 0.01031870304880268, "lon": 98.61054477951359, "alt_km": 35790.96981371144, "timestamp": "2025-12-09T07:41:32.871347+00:00", "meta": {"OBJECT_NAME": "INTELSAT 31 (IS-31)", "OBJECT_ID": "2016-035A", "EPOCH": "2025-12-08T21:42:47.389824", "MEAN_MOTION": 1.0026923, "ECCENTRICITY": 0.00018977, "INCLINATION": 0.019, "RA_OF_ASC_NODE": 270.8966, "ARG_OF_PERICENTER": 308.7352, "MEAN_ANOMALY": 88.9054, "EPHEMERIS_TYPE": 0, "CLASSIFICATION_TYPE": "U", "NORAD_CAT_ID": 41581, "ELEMENT_SET_NO": 999, "REV_AT_EPOCH": 3477, "BSTAR": 0, "MEAN_MOTION_DOT": -1.48e-06, "MEAN_MOTION_DDOT": 0}, "tle": {"line1": "1 41581U 16035A   25342.90471516 -.00000148  00000+0  00000+0 0  9995", "line2": "2 41581   0.0190 270.8966 0001897 308.7352  88.9054  1.00269230 34770"}}, "geometry": {"type": "Point", "coordinates": [98.61054477951359, 0.01031870304880268]}}, {"type": "Feature", "properties": {"norad_id": 41747, "name": "INTELSAT 36 (IS-36)", "group": "intelsat", "lat": -0.031949656259427056, "lon": -97.82160053953041, "alt_km": 35783.10737390611, "timestamp": "2025-12-09T07:41:32.871358+00:00", "meta": {"OBJECT_NAME": "INTELSAT 36 (IS-36)", "OBJECT_ID": "2016-053A", "EPOCH": "2025-12-08T12:13:07.705344", "MEAN_MOTION": 1.0026981, "ECCENTRICITY": 0.0001378, "INCLINATION": 0.0114, "RA_OF_ASC_NODE": 350.963, "ARG_OF_PERICENTER": 324.2523, "MEAN_ANOMALY": 14.0801, "EPHEMERIS_TYPE": 0, "CLASSIFICATION_TYPE": "U", "NORAD_CAT_ID": 41747, "ELEMENT_SET_NO": 999, "REV_AT_EPOCH": 3403, "BSTAR": 0, "MEAN_MOTION_DOT": -2.2e-07, "MEAN_MOTION_DDOT": 0}, "tle": {"line1": "1 41747U 16053A   25342.50911696 -.00000022  00000+0  00000+0 0  9994", "line2": "2 41747   0.0114 350.9630 0001378 324.2523  14.0801  1.00269810 34038"}}, "geometry": {"type": "Point", "coordinates": [-97.82160053953041, -0.031949656259427056]}}, {"type": "Feature", "properties": {"norad_id": 41945, "name": "INTELSAT 32E (IS-32E)", "group": "intelsat", "lat": 0.02663113512637046, "lon": 150.53165269877016, "alt_km": 35786.768341212446, "timestamp": "2025-12-09T07:41:32.871370+00:00", "meta": {"OBJECT_NAME": "INTELSAT 32E (IS-32E)", "OBJECT_ID": "2017-007B", "EPOCH": "2025-12-08T09:58:28.100928", "MEAN_MOTION": 1.00273553, "ECCENTRICITY": 2.799e-05, "INCLINATION": 0.0258, "RA_OF_ASC_NODE": 66.5377, "ARG_OF_PERICENTER": 242.4063, "MEAN_ANOMALY": 234.9251, "EPHEMERIS_TYPE": 0, "CLASSIFICATION_TYPE": "U", "NORAD_CAT_ID": 41945, "ELEMENT_SET_NO": 999, "REV_AT_EPOCH": 3231, "BSTAR": 0, "MEAN_MOTION_DOT": -2.66e-06, "MEAN_MOTION_DDOT": 0}, "tle": {"line1": "1 41945U 17007B   25342.41560302 -.00000266  00000+0  00000+0 0  9998", "line2": "2 41945   0.0258  66.5377 0000279 242.4063 234.9251  1.00273553 32314"}}, "geometry": {"type": "Point", "coordinates": [150.53165269877016, 0.02663113512637046]}}, {"type": "Feature", "properties": {"norad_id": 42818, "name": "INTELSAT 35E (IS-35E)", "group": "intelsat", "lat": -0.004422173927527675, "lon": 159.1704973917876, "alt_km": 35789.2745622165, "timestamp": "2025-12-09T07:41:32.871382+00:00", "meta": {"OBJECT_NAME": "INTELSAT 35E (IS-35E)", "OBJECT_ID": "2017-041A", "EPOCH": "2025-12-08T15:08:58.363584", "MEAN_MOTION": 1.00269468, "ECCENTRICITY": 0.00023338, "INCLINATION": 0.0186, "RA_OF_ASC_NODE": 327.2982, "ARG_OF_PERICENTER": 296.4588, "MEAN_ANOMALY": 6.6258, "EPHEMERIS_TYPE": 0, "CLASSIFICATION_TYPE": "U", "NORAD_CAT_ID": 42818, "ELEMENT_SET_NO": 999, "REV_AT_EPOCH": 3090, "BSTAR": 0, "MEAN_MOTION_DOT": -2.36e-06, "MEAN_MOTION_DDOT": 0}, "tle": {"line1": "1 42818U 17041A   25342.63123106 -.00000236  00000+0  00000+0 0  9994", "line2": "2 42818   0.0186 327.2982 0002333 296.4588   6.6258  1.00269468 30901"}}, "geometry": {"type": "Point", "coordinates": [159.1704973917876, -0.004422173927527675]}}, {"type": "Feature", "properties": {"norad_id": 42950, "name": "INTELSAT 37E (IS-37E)", "group": "intelsat", "lat": 0.0006984471633754898, "lon": 175.65772775558278, "alt_km": 35783.3652849755, "timestamp": "2025-12-09T07:41:32.871394+00:00", "meta": {"OBJECT_NAME": "INTELSAT 37E (IS-37E)", "OBJECT_ID": "2017-059A", "EPOCH": "2025-12-08T22:04:45.286176", "MEAN_MOTION": 1.00270707, "ECCENTRICITY": 0.00034017, "INCLINATION": 0.0173, "RA_OF_ASC_NODE": 5.1325, "ARG_OF_PERICENTER": 248.3233, "MEAN_ANOMALY": 137.6522, "EPHEMERIS_TYPE": 0, "CLASSIFICATION_TYPE": "U", "NORAD_CAT_ID": 42950, "ELEMENT_SET_NO": 999, "REV_AT_EPOCH": 3015, "BSTAR": 0, "MEAN_MOTION_DOT": -1.39e-06, "MEAN_MOTION_DDOT": 0}, "tle": {"line1": "1 42950U 17059A   25342.91996859 -.00000139  00000+0  00000+0 0  9996", "line2": "2 42950   0.0173   5.1325 0003401 248.3233 137.6522  1.00270707 30151"}}, "geometry": {"type": "Point", "coordinates": [175.65772775558278, 0.0006984471633754898]}}, {"type": "Feature", "properties": {"norad_id": 43632, "name": "AZERSPACE 2 (IS-38)", "group": "intelsat", "lat": -0.038451061157755415, "lon": -121.20129506444287, "alt_km": 35780.2804487358, "timestamp": "2025-12-09T07:41:32.871406+00:00", "meta": {"OBJECT_NAME": "AZERSPACE 2 (IS-38)", "OBJECT_ID": "2018-074A", "EPOCH": "2025-12-08T22:09:38.665152", "MEAN_MOTION": 1.00270137, "ECCENTRICITY": 0.00015706, "INCLINATION": 0.0183, "RA_OF_ASC_NODE": 335.8679, "ARG_OF_PERICENTER": 283.5825, "MEAN_ANOMALY": 195.9932, "EPHEMERIS_TYPE": 0, "CLASSIFICATION_TYPE": "U", "NORAD_CAT_ID": 43632, "ELEMENT_SET_NO": 999, "REV_AT_EPOCH": 2654, "BSTAR": 0, "MEAN_MOTION_DOT": 1.39e-06, "MEAN_MOTION_DDOT": 0}, "tle": {"line1": "1 43632U 18074A   25342.92336418  .00000139  00000+0  00000+0 0  9991", "line2": "2 43632   0.0183 335.8679 0001570 283.5825 195.9932  1.00270137 26545"}}, "geometry": {"type": "Point", "coordinates": [-121.20129506444287, -0.038451061157755415]}}, {"type": "Feature", "properties": {"norad_id": 43633, "name": "HORIZONS-3E", "group": "intelsat", "lat": 0.02048696665652036, "lon": 2.715992788104443, "alt_km": 35785.50988112979, "timestamp": "2025-12-09T07:41:32.871418+00:00", "meta": {"OBJECT_NAME": "HORIZONS-3E", "OBJECT_ID": "2018-074B", "EPOCH": "2025-12-08T14:38:38.662944", "MEAN_MOTION": 1.00267707, "ECCENTRICITY": 0.0001331, "INCLINATION": 0.0425, "RA_OF_ASC_NODE": 176.8531, "ARG_OF_PERICENTER": 113.5784, "MEAN_ANOMALY": 175.8576, "EPHEMERIS_TYPE": 0, "CLASSIFICATION_TYPE": "U", "NORAD_CAT_ID": 43633, "ELEMENT_SET_NO": 999, "REV_AT_EPOCH": 2643, "BSTAR": 0, "MEAN_MOTION_DOT": -2.9e-07, "MEAN_MOTION_DDOT": 0}, "tle": {"line1": "1 43633U 18074B   25342.61016971 -.00000029  00000+0  00000+0 0  9996", "line2": "2 43633   0.0425 176.8531 0001331 113.5784 175.8576  1.00267707 26434"}}, "geometry": {"type": "Point", "coordinates": [2.715992788104443, 0.02048696665652036]}}, {"type": "Feature", "properties": {"norad_id": 44333, "name": "AT&T T-16", "group": "intelsat", "lat": 0.025118612061975645, "lon": 92.82887700565131, "alt_km": 35785.570123792735, "timestamp": "2025-12-09T07:41:32.871430+00:00", "meta": {"OBJECT_NAME": "AT&T T-16", "OBJECT_ID": "2019-034A", "EPOCH": "2025-12-08T21:41:02.558112", "MEAN_MOTION": 1.00269889, "ECCENTRICITY": 8.709e-05, "INCLINATION": 0.0241, "RA_OF_ASC_NODE": 63.5778, "ARG_OF_PERICENTER": 102.5746, "MEAN_ANOMALY": 136.155, "EPHEMERIS_TYPE": 0, "CLASSIFICATION_TYPE": "U", "NORAD_CAT_ID": 44333, "ELEMENT_SET_NO": 999, "REV_AT_EPOCH": 2372, "BSTAR": 0, "MEAN_MOTION_DOT": -1.13e-06, "MEAN_MOTION_DDOT": 0}, "tle": {"line1": "1 44333U 19034A   25342.90350183 -.00000113  00000+0  00000+0 0  9993", "line2": "2 44333   0.0241  63.5778 0000870 102.5746 136.1550  1.00269889 23720"}}, "geometry": {"type": "Point", "coordinates": [92.82887700565131, 0.025118612061975645]}}]}